OPS 6582 (TRANSIT 5B-5) 
1 00965U 64083D   26046.50496256  .00000069  00000+0  83864-4 0  9993
2 00965  90.0709 202.0600 0039590 273.8299 155.6478 13.56999174 27114
LES-1                   
1 01002U 65008C   26046.23802434  .00000012  00000+0  41239-3 0  9990
2 01002  32.1484 333.6086 0015704 191.5707 168.4430  9.88354674204122
SOLRAD 7B               
1 01291U 65016D   26046.49968453  .00000023  00000+0  55543-4 0  9997
2 01291  70.0794 134.9744 0023832 279.3066  80.5345 13.94959086 99732
SECOR 4 (EGRS 4)        
1 01315U 65027B   26046.43706292  .00000026  00000+0  69741-4 0  9999
2 01315  90.2498  12.7842 0031787 155.3218 330.3622 12.92664582871199
TIROS 10                
1 01430U 65051A   26046.23339108  .00000241  00000+0  86039-4 0  9998
2 01430  98.4870 166.2165 0056484  85.4516 275.3123 14.41577493178340
ALOUETTE 2              
1 01804U 65098A   26046.40038590  .00000491  00000+0  15385-3 0  9996
2 01804  79.8013  20.2579 1331007 119.4544 254.5951 12.28210238664322
OV3-3                   
1 02389U 66070A   26046.48249509  .00011852  00000+0  53292-3 0  9990
2 02389  81.3226  78.1445 1026942 112.7873 258.4988 13.42005100582621
SECOR 7 (EGRS 7)        
1 02411U 66077B   26046.02882995  .00000025  00000+0  11675-1 0  9992
2 02411  90.3305 276.0269 0011366 177.7407 182.3497  8.59615414866885
ERS 15                  
1 02412U 66077C   26046.06865408  .00000002  00000+0  00000+0 0  9990
2 02412  90.3317 275.8202 0006756 184.5878 175.4912  8.59079388379976
ISIS 1                  
1 03669U 69009A   26046.32653311  .00000289  00000+0  19114-3 0  9997
2 03669  88.4555 157.7451 1707873 134.2816 241.1772 11.30406287346008
SECOR 13 (EGRS 13)      
1 03891U 69037B   26046.51299852 -.00000008  00000+0  59685-4 0  9990
2 03891  99.6691 283.1641 0039316 188.9827 239.7423 13.42971262785426
ATS 5                   
1 04068U 69069A   26046.49357699 -.00000295  00000+0  00000+0 0  9993
2 04068   0.3174 220.5305 0006446  59.6001 166.2000  0.99493043 45110
OPS 7613 (P/L 4)        
1 04237U 69082E   26046.30443479  .00000039  00000+0  67259-4 0  9997
2 04237  70.0165   4.2580 0023248 286.5811 223.2046 13.95974689869290
OPS 7613 (P/L 1)        
1 04256U 69082B   26046.49053805  .00000144  00000+0  13574-3 0  9995
2 04256  70.0071 226.4411 0021679 229.2383 130.6843 13.99159456873441
SHINSEI (MS-F2)         
1 05485U 71080A   26045.99705979  .00000023  00000+0 -38234-5 0  9990
2 05485  32.0562 271.8509 0640172 311.1214  43.5788 12.74248558533661
PROSPERO (BLACK ARROW)  
1 05580U 71093A   26046.50207461  .00000863  00000+0  18307-3 0  9999
2 05580  82.0370  37.6087 0501386 215.8967 140.7542 14.01352239731488
OPS 7898 (P/L 2)        
1 05680U 71110C   26046.51767068  .00000030  00000+0  84493-4 0  9991
2 05680  69.9870 254.0094 0009653 308.8563  51.1669 13.74747316331491
NOAA 2 (ITOS-D)         
1 06235U 72082A   26046.48657427 -.00000022  00000+0  15714-3 0  9991
2 06235 102.0179  63.6850 0004172  46.7863 115.8055 12.53211042439703
OSCAR 7 (AO-7)          
1 07530U 74089B   26046.04265448 -.00000024  00000+0  13824-3 0  9991
2 07530 101.9971  57.9891 0012212   5.7240  12.1600 12.53695878345219
TIROS N                 
1 11060U 78096A   26046.04149058  .00000175  00000+0  10303-3 0  9999
2 11060  98.4657  72.5641 0009502 232.4603 127.5711 14.19327869661423
PHASE 3B (AO-10)        
1 14129U 83058B   26045.99297201 -.00000325  00000+0  00000+0 0  9996
2 14129  25.9491 240.1449 6053778  81.7055 338.7456  2.05874730292976
HILAT                   
1 14154U 83063A   26046.12035590  .00000367  00000+0  11405-3 0  9997
2 14154  82.0220 274.5097 0038445 301.8286 171.3783 14.38615308230034
UOSAT 2 (UO-11)         
1 14781U 84021B   26046.45201863  .00002072  00000+0  21827-3 0  9996
2 14781  97.7907  13.5229 0006463 218.0636 142.0125 14.90422710238995
NOAA 9                  
1 15427U 84123A   26046.48817846  .00000161  00000+0  10312-3 0  9998
2 15427  99.1117  70.2362 0014203 338.4145 151.7762 14.17031148126184
GEOSAT                  
1 15595U 85021A   26046.36644196  .00000312  00000+0  14237-3 0  9993
2 15595 108.0448 187.8881 0002469 265.6844  94.4016 14.39894448145232
EUTELSAT 1-F4 (ECS 4)   
1 18351U 87078B   26046.24068241 -.00000086  00000+0  00000+0 0  9996
2 18351  13.9151 342.9768 0011198  21.5639 153.8356  0.98687982125551
PACSAT (AO-16)          
1 20439U 90005D   26046.34110050  .00000184  00000+0  82714-4 0  9992
2 20439  98.8683  79.0760 0009795 225.2296 202.1821 14.33892752884470
LUSAT (LO-19)           
1 20442U 90005G   26046.50369308  .00000186  00000+0  83271-4 0  9997
2 20442  98.8948  64.9018 0011218 197.9910 162.0878 14.34078471884952
IRS-1B                  
1 21688U 91061A   26046.52100560  .00000243  00000+0  20468-3 0  9990
2 21688  99.4128  51.4244 0023855 336.2360 135.9685 13.97852016651490
COSMOS 2197             
1 22034U 92042A   26046.22198539  .00000040  00000+0  15987-3 0  9991
2 22034  82.5964 306.8889 0012231 187.9264 341.2801 12.64246984549873
PEGASUS R/B             
1 22491U 93009C   26046.48328073  .00001467  00000+0  26750-3 0  9992
2 22491  24.9771 135.7858 0043810 234.2409 125.4022 14.57773011751855
EYESAT A (AO-27)        
1 22825U 93061C   26046.40081342  .00000149  00000+0  73568-4 0  9994
2 22825  98.7030 113.7885 0009523  97.6919 262.5345 14.30905474689581
ITAMSAT (IO-26)         
1 22826U 93061D   26046.13674960  .00000112  00000+0  59316-4 0  9994
2 22826  98.6980 113.4292 0010028  83.8061 276.4264 14.31328425689851
RADIO ROSTO (RS15)      
1 23439U 94085A   26046.52325999 -.00000201  00000+0 -45057-2 0  9996
2 23439  64.8164 139.9828 0151810  26.2513 334.6007 11.27582797282180
JAS-2 (FO-29)           
1 24278U 96046B   26046.46705416  .00000029  00000+0  63271-4 0  9992
2 24278  98.5413 271.8892 0350667  52.3566 310.8851 13.53267112456705
FORTE                   
1 24920U 97047A   26046.06671605  .00000181  00000+0  96314-4 0  9999
2 24920  69.9529 289.8459 0019066  84.6499 275.6798 14.27885932481259
NOAA 15                 
1 25338U 98030A   26046.47327094  .00000185  00000+0  93243-4 0  9993
2 25338  98.5181  70.3335 0009955 350.8143   9.2855 14.27103410443933
TECHSAT 1B (GO-32)      
1 25397U 98043D   26046.47264397  .00000114  00000+0  69574-4 0  9990
2 25397  98.9998  36.2059 0001210 156.3161 203.8073 14.24399776434008
ISS (ZARYA)             
1 25544U 98067A   26046.44054941  .00012882  00000+0  24435-3 0  9990
2 25544  51.6317 182.3364 0011011 101.2437 258.9789 15.48624284552884
ORSTED                  
1 25635U 99008B   26046.38983308  .00000730  00000+0  17033-3 0  9993
2 25635  96.4795 341.5890 0131122 216.6607 142.5568 14.51651767424296
LANDSAT 7               
1 25682U 99020A   26046.52567417  .00000626  00000+0  12859-3 0  9999
2 25682  97.8602  55.7375 0001749  94.5482  71.1465 14.63793304428044
ORBCOMM FM36            
1 25984U 99065E   26046.27306821  .00001546  00000+0  54309-3 0  9993
2 25984  45.0403  18.2323 0001794  37.9397 322.1578 14.38919720369420
DMSP 5D-3 F15 (USA 147) 
1 25991U 99067A   26046.55804006  .00000190  00000+0  11633-3 0  9999
2 25991  99.0135  83.5041 0009730 354.9926 174.9963 14.17510643353410
OPAL (OO-38)            
1 26063U 00004C   26046.33943907  .00000223  00000+0  92888-4 0  9992
2 26063 100.1897 320.7282 0036129  20.5685 339.6942 14.37912841365770
IMAGE                   
1 26113U 00017A   26043.76479280 -.00000143  00000+0 -17132-1 0  9993
2 26113  94.1135 313.6710 7526275 302.0463   6.3979  1.68665566159403
CLUSTER II-FM7 (SAMBA)  
1 26410U 00041A   26023.07807862  .00004677  00000+0  00000+0 0  9991
2 26410 148.3592  29.7174 8835954 245.6118 359.2301  0.44786329 19664
CLUSTER II-FM8 (TANGO)  
1 26464U 00045B   26019.78457485  .00005071  00000+0  00000+0 0  9998
2 26464 148.5838  29.9991 8833034 245.7591 359.3805  0.44425532 19644
MEGSAT-1                
1 26546U 00057B   26046.48591006  .00004621  00000+0  33516-3 0  9999
2 26546  64.5500  98.8726 0036987 296.8990  62.8349 15.04640614379340
PHASE 3D (AO-40)        
1 26609U 00072B   26045.22154733 -.00000435  00000+0  00000+0 0  9997
2 26609   9.6080   9.8556 7945525 139.8184 320.4677  1.25587715115964
ODIN                    
1 26702U 01007A   26046.04757676  .00041646  00000+0  58806-3 0  9995
2 26702  97.4128  81.1972 0002116 209.4760 150.6376 15.56459707370317
OMNI-M1                 
1 26857U 01026A   26044.90667578  .00000004  00000+0  00000+0 0  9993
2 26857  44.8842 273.6654 0018120  24.2093 335.9314  3.92402482200739
PCSAT (NO-44)           
1 26931U 01043C   26046.48643629  .00000253  00000+0  12533-3 0  9995
2 26931  67.0496 199.0327 0007012 265.9258  94.1043 14.31899560273024
PROBA-1                 
1 26958U 01049B   26046.51317186  .00001425  00000+0  96828-4 0  9992
2 26958  97.9614  50.8335 0055797 172.4859 187.7217 15.06896909325298
SPOT 5                  
1 27421U 02021A   26046.08030443  .00000474  00000+0  11006-3 0  9996
2 27421  98.0031  90.2615 0128535 296.4855  62.3207 14.54635620245091
FENGYUN 1D              
1 27431U 02024B   26046.11344916  .00000027  00000+0  40576-4 0  9996
2 27431  98.9709  96.9048 0014762 223.3582 136.6428 14.10205311222275
SAUDISAT 1C (SO-50)     
1 27607U 02058C   26046.49496304  .00001986  00000+0  25224-3 0  9995
2 27607  64.5521 145.4096 0074620 284.6819  74.6023 14.82694069246411
CORIOLIS                
1 27640U 03001A   26046.50257341  .00000179  00000+0  10477-3 0  9996
2 27640  98.7158  55.2328 0013604 199.2776 160.7887 14.19903680196957
CUTE-1 (CO-55)          
1 27844U 03031E   26046.50470245  .00000412  00000+0  19759-3 0  9997
2 27844  98.6776  56.5800 0009698 172.4966 187.6359 14.24247228174356
CUBESAT XI-IV (CO-57)   
1 27848U 03031J   26046.50288758  .00000357  00000+0  17587-3 0  9992
2 27848  98.6805  56.3887 0009228 190.5780 169.5206 14.23545316174066
